361P/Spacewatch,e,13.8914,203.2507,219.0637,4.939038,0.0897926,0.43799742,90.9442,04/10.0/2021,2000,g 12.0,4.0
# From MPEC 2017-V13
362P/,e,15.5568,192.5716,53.7012,3.968674,0.1246625,0.27952898,210.7507,04/10.0/2021,2000,g 12.9,2.0
# From MPC114609
363P/Lemmon,e,5.3861,146.9809,341.2516,3.545365,0.1476429,0.52795071,166.8133,04/10.0/2021,2000,g 17.5,4.0
# From MPEC 2021-F20
364P/PANSTARRS,e,12.1411,46.1945,212.0031,2.879195,0.2017426,0.72225468,205.9134,04/10.0/2021,2000,g 17.0,2.0
# From MPC111775
365P/PANSTARRS,e,9.8286,87.2945,66.2927,3.176324,0.1741072,0.57676945,200.7217,04/10.0/2021,2000,g 17.0,4.0
# From MPC114610
366P/Spacewatch,e,8.8590,70.7578,153.1471,3.495694,0.1508009,0.34830821,149.9331,04/10.0/2021,2000,g 15.0,4.0
# From MPC112395
367P/Catalina,e,8.4627,58.7200,172.9128,3.505599,0.1501622,0.28029709,153.7716,04/10.0/2021,2000,g 17.5,2.0
# From MPC114610
368P/NEAT,e,15.4818,257.9479,118.7872,5.526936,0.0758538,0.62636714,71.1825,04/10.0/2021,2000,g 14.0,4.0
# From MPC114610
369P/Hill,e,10.3133,47.2968,13.1856,4.384640,0.1073503,0.55437735,97.4611,04/10.0/2021,2000,g 15.0,4.0
# From MPEC 2021-F20
370P/NEAT,e,19.4038,55.1211,356.6852,6.435241,0.0603750,0.61455121,62.5173,04/10.0/2021,2000,g 13.0,4.0
# From MPC114610
371P/LINEAR-Skiff,e,17.3774,67.3049,308.4591,4.181134,0.1152824,0.47660496,105.8404,04/10.0/2021,2000,g 16.0,4.0
# From MPEC 2020-K19
372P/McNaught,e,9.5101,325.8160,27.2763,4.504158,0.1031059,0.15270194,92.9190,04/10.0/2021,2000,g 13.5,4.0
# From MPEC 2021-F20
373P/Rinner,e,13.7609,231.9481,221.1099,3.803889,0.1328502,0.39218238,97.2740,04/10.0/2021,2000,g 14.5,4.0
# From MPC114610
374P/Larson,e,10.7630,7.9121,51.4990,4.973950,0.0888489,0.46247845,72.8826,04/10.0/2021,2000,g 14.0,4.0
# From MPEC 2021-F20
375P/Hill,e,17.3612,359.9439,119.4651,5.557014,0.0752388,0.65860067,63.2724,04/10.0/2021,2000,g 16.0,4.0
# From MPEC 2020-W26
376P/LONEOS,e,1.1920,314.8103,284.8660,5.842834,0.0697861,0.51758931,39.1288,04/10.0/2021,2000,g 12.5,4.0
# From MPEC 2021-FB5
377P/Scotti,e,9.0231,226.0597,355.0211,6.711031,0.0566918,0.25241193,15.4319,04/10.0/2021,2000,g  9.5,4.0
# From MPEC 2019-TG9
378P/McNaught,e,19.0706,94.4610,193.9498,6.386698,0.0610646,0.47078511,10.4947,04/10.0/2021,2000,g 12.0,4.0
# From MPC115889
379P/Spacewatch,e,12.4138,183.8388,31.0573,3.523038,0.1490486,0.33975851,92.0825,04/10.0/2021,2000,g 15.0,4.0
# From MPEC 2020-KB7
380P/PANSTARRS,e,8.2844,132.9850,88.8996,4.521911,0.1024993,0.33211734,69.3369,04/10.0/2021,2000,g 12.5,4.0
# From MPEC 2021-F20
381P/LINEAR-Spacewatch,e,28.3755,173.7736,173.1582,7.122491,0.0518509,0.68182445,29.0868,04/10.0/2021,2000,g 17.5,2.0
# From MPC115889
382P/Larson,e,7.8066,175.5532,173.6336,6.353054,0.0615503,0.30784323,338.4378,04/10.0/2021,2000,g  8.0,4.0
# From MPC118844
383P/Christensen,e,12.3211,207.8740,133.6719,3.545076,0.1476610,0.59959978,78.5118,04/10.0/2021,2000,g 18.0,4.0
# From MPEC 2020-W26
384P/Kowalski,e,7.2834,354.2272,37.6247,2.901178,0.1994539,0.61552998,109.0024,04/10.0/2021,2000,g 19.5,4.0
# From MPEC 2021-F20
385P/Hill,e,16.8290,357.0629,44.3265,4.288353,0.1109860,0.40144026,63.6133,04/10.0/2021,2000,g 13.0,4.0
# From MPEC 2021-FB5
386P/PANSTARRS,e,15.2296,134.9480,353.2333,4.057221,0.1206038,0.41633189,28.1849,04/10.0/2021,2000,g 14.5,4.0
# From MPEC 2021-F20
387P/Boattini,e,8.9182,259.3220,162.7739,4.798915,0.0937539,0.73606838,54.5456,04/10.0/2021,2000,g 15.0,4.0
# From MPEC 2021-F20
388P/Gibbs,e,23.8664,37.0435,42.3699,5.244659,0.0820594,0.61798434,51.4063,04/10.0/2021,2000,g 13.0,4.0
# From MPEC 2021-F20
389P/Siding Spring,e,160.0673,218.8510,249.2995,5.626497,0.0738494,0.70433604,34.5454,04/10.0/2021,2000,g 16.0,4.0
# From MPEC 2021-F20
390P/Gibbs,e,18.5611,152.2753,232.3499,5.802873,0.0705082,0.70708850,27.0558,04/10.0/2021,2000,g 12.0,4.0
# From MPEC 2021-F20
391P/Kowalski,e,21.2761,124.7302,186.9311,4.678413,0.0973994,0.12072411,108.7241,04/10.0/2021,2000,g  8.0,4.0
# From MPEC 2020-HN5
392P/LINEAR,e,4.9301,24.8810,71.9703,6.146631,0.0646768,0.68279940,24.2026,04/10.0/2021,2000,g 14.5,4.0
# From MPEC 2021-BE3
393P/Spacewatch-Hill,e,16.7919,36.4180,328.1935,4.786080,0.0941313,0.12050277,50.1430,04/10.0/2021,2000,g 11.0,4.0
# From MPEC 2020-KB7
394P/PANSTARRS,e,8.5296,98.1248,54.5182,4.332215,0.1093048,0.36792274,54.2876,04/10.0/2021,2000,g 16.0,2.4
# From MPEC 2021-BE3
395P/Catalina-NEAT,e,3.2782,223.7760,89.7972,6.536072,0.0589833,0.37810579,344.3701,04/10.0/2021,2000,g 10.0,4.0
# From MPEC 2020-KB7
396P/Leonard,e,5.4363,136.6635,8.6120,6.819292,0.0553471,0.41601598,32.6730,04/10.0/2021,2000,g 12.0,4.0
# From MPEC 2021-F20
397P/Lemmon,e,10.9283,8.2056,14.4261,3.827123,0.1316423,0.40502197,38.7878,04/10.0/2021,2000,g 12.0,4.0
# From MPEC 2021-FB5
398P/Boattini,e,11.0154,127.4623,320.2373,3.128375,0.1781254,0.58263593,18.5700,04/10.0/2021,2000,g 15.5,4.0
# From MPEC 2021-BE3
399P/PANSTARRS,e,13.3192,207.1464,214.2928,3.788798,0.1336448,0.44677517,354.3107,04/10.0/2021,2000,g 14.0,4.0
# From MPEC 2021-FB5
400P/PANSTARRS,e,10.9290,176.3969,238.7872,3.559385,0.1467714,0.40907029,8.6453,04/10.0/2021,2000,g 15.5,2.8
# From MPEC 2021-BE3
401P/McNaught,e,12.8040,359.8879,309.3168,5.772102,0.0710727,0.58013331,34.7812,04/10.0/2021,2000,g 12.5,4.0
# From MPEC 2021-F20
402P/LINEAR,e,30.8529,123.0885,326.7495,7.008793,0.0531177,0.43816063,346.7913,04/10.0/2021,2000,g  8.0,4.0
# From MPEC 2021-FB5
403P/Catalina,e,12.3206,163.8135,277.6686,5.426931,0.0779602,0.50336740,16.0320,04/10.0/2021,2000,g 12.0,4.0
# From MPEC 2020-W26
404P/Bressi,e,9.7671,262.2197,160.5788,4.840397,0.0925513,0.13714910,278.1386,04/10.0/2021,2000,g 10.0,4.0
# From MPEC 2021-FB5
405P/Lemmon,e,9.3652,3.3126,112.2453,3.609421,0.1437301,0.68917934,15.3339,04/10.0/2021,2000,g 17.5,4.0
# From MPEC 2021-F20
406P/Gibbs,e,1.2135,11.4727,352.3701,3.573766,0.1458865,0.54195912,30.0938,04/10.0/2021,2000,g 17.0,4.0
# From MPEC 2021-F20
407P/PANSTARRS-Fuls,e,4.8941,80.8305,92.4893,3.457323,0.1533183,0.38486355,66.5186,04/10.0/2021,2000,g 14.0,4.0
# From MPEC 2021-F20
408P/Novichonok-Gerke,e,19.3095,189.4839,225.8071,4.767026,0.0946963,0.27159065,308.9266,04/10.0/2021,2000,g 11.0,4.0
# From MPEC 2021-FB5
409P/LONEOS-Hill,e,17.1188,143.6712,15.1341,6.049302,0.0662439,0.71004238,4.7585,04/10.0/2021,2000,g 14.0,4.0
# From MPEC 2021-F20
410P/NEAT-LINEAR,e,9.3938,139.9807,313.0986,6.630028,0.0577339,0.51025454,355.6940,04/10.0/2021,2000,g 12.5,4.0
# From MPEC 2021-FB5
411P/Christensen,e,12.3771,77.6723,46.6862,5.818793,0.0702190,0.58088656,5.3037,04/10.0/2021,2000,g 13.5,4.0
# From MPEC 2021-F20
412P/WISE,e,8.9312,0.8490,155.9157,3.109782,0.1797253,0.47985665,22.5790,04/10.0/2021,2000,g 17.0,4.0
# From MPEC 2021-FB5
413P/Larson,e,15.9775,39.0255,186.0343,3.710895,0.1378752,0.42335191,346.0484,04/10.0/2021,2000,g 14.0,4.0
# From MPEC 2021-BE3
414P/STEREO,e,23.3840,257.7893,210.7321,2.794973,0.2109297,0.81167245,15.7386,04/10.0/2021,2000,g 19.0,4.0
# From MPEC 2021-FB5
415P/Tenagra,e,31.7867,160.2955,346.2287,4.115874,0.1180351,0.19484573,6.3742,04/10.0/2021,2000,g 12.0,4.0
# From MPEC 2021-F20
416P/Scotti,e,3.3613,355.8119,134.5257,4.013803,0.1225660,0.45439748,6.5581,04/10.0/2021,2000,g 15.5,4.0
# From MPEC 2021-FB5
417P/NEOWISE,e,8.1310,111.3510,129.4574,3.347758,0.1609062,0.55432647,358.0414,04/10.0/2021,2000,g 16.5,4.0
# From MPEC 2021-FB5
418P/LINEAR,e,5.7975,277.6614,307.0921,5.082354,0.0860215,0.66493974,343.6082,04/10.0/2021,2000,g 13.0,4.0
# From MPC107687
1I/`Oumuamua,h,09/09.4886/2017,122.6778,24.5997,241.6845,1.199252,0.255240,2000,23.0,2.0
# From MPEC 2020-K19
2I/Borisov,h,12/08.5549/2019,44.0527,308.1480,209.1251,3.356636,2.006548,2000,11.0,4.0
